{
  "type": "FeatureCollection",
  "features": [
    {
      "type": "Feature",
      "properties": {
        "norad_id": 37491,
        "name": "COSMOS 2251 DEB",
        "group": "cosmos-2251-debris",
        "lat": -56.155264267512045,
        "lon": -131.0928042770743,
        "alt_km": 848.4557660786622,
        "timestamp": "2025-12-24T11:33:00.416506+00:00",
        "meta_object_name": "COSMOS 2251 DEB",
        "meta_object_id": "1993-036BLU",
        "meta_epoch": "2025-12-22T10:57:29.496960",
        "meta_mean_motion": 13.75314212,
        "meta_eccentricity": 0.03164965,
        "meta_inclination": 73.9061,
        "meta_ra_of_asc_node": 257.8008,
        "meta_arg_of_pericenter": 249.1105,
        "meta_mean_anomaly": 107.5867,
        "meta_ephemeris_type": 0,
        "meta_classification_type": "U",
        "meta_norad_cat_id": 37491,
        "meta_element_set_no": 999,
        "meta_rev_at_epoch": 55880,
        "meta_bstar": 0.00087641846,
        "meta_mean_motion_dot": 1.186e-05,
        "meta_mean_motion_ddot": 0,
        "tle_line1": "1 37491U 93036BLU 25356.45659140  .00001186  00000+0  87642-3 0  9995",
        "tle_line2": "2 37491  73.9061 257.8008 0316496 249.1105 107.5867 13.75314212558802"
      },
      "geometry": {
        "type": "Point",
        "coordinates": [
          -131.0928042770743,
          -56.155264267512045
        ]
      }
    },
    {
      "type": "Feature",
      "properties": {
        "norad_id": 37498,
        "name": "COSMOS 2251 DEB",
        "group": "cosmos-2251-debris",
        "lat": 70.49510936268776,
        "lon": -72.24991290034687,
        "alt_km": 707.2729872481177,
        "timestamp": "2025-12-24T11:33:00.416517+00:00",
        "meta_object_name": "COSMOS 2251 DEB",
        "meta_object_id": "1993-036BMB",
        "meta_epoch": "2025-12-17T05:47:45.632832",
        "meta_mean_motion": 14.54797097,
        "meta_eccentricity": 0.00121661,
        "meta_inclination": 74.035,
        "meta_ra_of_asc_node": 175.365,
        "meta_arg_of_pericenter": 238.5243,
        "meta_mean_anomaly": 121.4732,
        "meta_ephemeris_type": 0,
        "meta_classification_type": "U",
        "meta_norad_cat_id": 37498,
        "meta_element_set_no": 999,
        "meta_rev_at_epoch": 65420,
        "meta_bstar": 0.00050498457,
        "meta_mean_motion_dot": 2.139e-05,
        "meta_mean_motion_ddot": 0,
        "tle_line1": "1 37498U 93036BMB 25351.24150038  .00002139  00000+0  50498-3 0  9994",
        "tle_line2": "2 37498  74.0350 175.3650 0012166 238.5243 121.4732 14.54797097654202"
      },
      "geometry": {
        "type": "Point",
        "coordinates": [
          -72.24991290034687,
          70.49510936268776
        ]
      }
    },
    {
      "type": "Feature",
      "properties": {
        "norad_id": 37499,
        "name": "COSMOS 2251 DEB",
        "group": "cosmos-2251-debris",
        "lat": 9.34101014207742,
        "lon": 117.99685026661557,
        "alt_km": 796.5357453486495,
        "timestamp": "2025-12-24T11:33:00.416528+00:00",
        "meta_object_name": "COSMOS 2251 DEB",
        "meta_object_id": "1993-036BMC",
        "meta_epoch": "2025-12-23T02:57:22.621536",
        "meta_mean_motion": 14.34351991,
        "meta_eccentricity": 0.00274212,
        "meta_inclination": 74.0383,
        "meta_ra_of_asc_node": 303.1804,
        "meta_arg_of_pericenter": 16.3552,
        "meta_mean_anomaly": 343.8478,
        "meta_ephemeris_type": 0,
        "meta_classification_type": "U",
        "meta_norad_cat_id": 37499,
        "meta_element_set_no": 999,
        "meta_rev_at_epoch": 85298,
        "meta_bstar": 0.00016952069,
        "meta_mean_motion_dot": 4.53e-06,
        "meta_mean_motion_ddot": 0,
        "tle_line1": "1 37499U 93036BMC 25357.12317849  .00000453  00000+0  16952-3 0  9997",
        "tle_line2": "2 37499  74.0383 303.1804 0027421  16.3552 343.8478 14.34351991852985"
      },
      "geometry": {
        "type": "Point",
        "coordinates": [
          117.99685026661557,
          9.34101014207742
        ]
      }
    },
    {
      "type": "Feature",
      "properties": {
        "norad_id": 37528,
        "name": "COSMOS 2251 DEB",
        "group": "cosmos-2251-debris",
        "lat": -64.9196904989923,
        "lon": 62.37090404859419,
        "alt_km": 719.656853580279,
        "timestamp": "2025-12-24T11:33:00.416538+00:00",
        "meta_object_name": "COSMOS 2251 DEB",
        "meta_object_id": "1993-036BNH",
        "meta_epoch": "2025-12-22T00:17:10.365792",
        "meta_mean_motion": 14.50551817,
        "meta_eccentricity": 0.00211657,
        "meta_inclination": 74.0378,
        "meta_ra_of_asc_node": 104.7119,
        "meta_arg_of_pericenter": 251.9967,
        "meta_mean_anomaly": 107.8887,
        "meta_ephemeris_type": 0,
        "meta_classification_type": "U",
        "meta_norad_cat_id": 37528,
        "meta_element_set_no": 999,
        "meta_rev_at_epoch": 86065,
        "meta_bstar": 0.00046776664,
        "meta_mean_motion_dot": 1.81e-05,
        "meta_mean_motion_ddot": 0,
        "tle_line1": "1 37528U 93036BNH 25356.01192553  .00001810  00000+0  46777-3 0  9996",
        "tle_line2": "2 37528  74.0378 104.7119 0021165 251.9967 107.8887 14.50551817860654"
      },
      "geometry": {
        "type": "Point",
        "coordinates": [
          62.37090404859419,
          -64.9196904989923
        ]
      }
    },
    {
      "type": "Feature",
      "properties": {
        "norad_id": 37530,
        "name": "COSMOS 2251 DEB",
        "group": "cosmos-2251-debris",
        "lat": -57.422820493246356,
        "lon": 158.75449103111947,
        "alt_km": 795.390438269962,
        "timestamp": "2025-12-24T11:33:00.416549+00:00",
        "meta_object_name": "COSMOS 2251 DEB",
        "meta_object_id": "1993-036BNK",
        "meta_epoch": "2025-12-21T14:21:51.053184",
        "meta_mean_motion": 14.34514444,
        "meta_eccentricity": 0.00262828,
        "meta_inclination": 74.0362,
        "meta_ra_of_asc_node": 317.4173,
        "meta_arg_of_pericenter": 16.8555,
        "meta_mean_anomaly": 103.2676,
        "meta_ephemeris_type": 0,
        "meta_classification_type": "U",
        "meta_norad_cat_id": 37530,
        "meta_element_set_no": 999,
        "meta_rev_at_epoch": 85359,
        "meta_bstar": 0.00021615779,
        "meta_mean_motion_dot": 5.86e-06,
        "meta_mean_motion_ddot": 0,
        "tle_line1": "1 37530U 93036BNK 25355.59850756  .00000586  00000+0  21616-3 0  9991",
        "tle_line2": "2 37530  74.0362 317.4173 0026282  16.8555 103.2676 14.34514444853597"
      },
      "geometry": {
        "type": "Point",
        "coordinates": [
          158.75449103111947,
          -57.422820493246356
        ]
      }
    },
    {
      "type": "Feature",
      "properties": {
        "norad_id": 37532,
        "name": "COSMOS 2251 DEB",
        "group": "cosmos-2251-debris",
        "lat": -4.3982199063130345,
        "lon": -167.2996449178497,
        "alt_km": 748.2725902616721,
        "timestamp": "2025-12-24T11:33:00.416560+00:00",
        "meta_object_name": "COSMOS 2251 DEB",
        "meta_object_id": "1993-036BNM",
        "meta_epoch": "2025-12-23T06:09:57.152736",
        "meta_mean_motion": 14.42421631,
        "meta_eccentricity": 0.00161913,
        "meta_inclination": 74.0489,
        "meta_ra_of_asc_node": 196.2293,
        "meta_arg_of_pericenter": 295.9587,
        "meta_mean_anomaly": 184.3204,
        "meta_ephemeris_type": 0,
        "meta_classification_type": "U",
        "meta_norad_cat_id": 37532,
        "meta_element_set_no": 999,
        "meta_rev_at_epoch": 85067,
        "meta_bstar": 0.00017964989,
        "meta_mean_motion_dot": 5.69e-06,
        "meta_mean_motion_ddot": 0,
        "tle_line1": "1 37532U 93036BNM 25357.25691149  .00000569  00000+0  17965-3 0  9990",
        "tle_line2": "2 37532  74.0489 196.2293 0016191 295.9587 184.3204 14.42421631850675"
      },
      "geometry": {
        "type": "Point",
        "coordinates": [
          -167.2996449178497,
          -4.3982199063130345
        ]
      }
    },
    {
      "type": "Feature",
      "properties": {
        "norad_id": 37533,
        "name": "COSMOS 2251 DEB",
        "group": "cosmos-2251-debris",
        "lat": -66.00689512736523,
        "lon": 31.03123762525409,
        "alt_km": 756.4426501827047,
        "timestamp": "2025-12-24T11:33:00.416570+00:00",
        "meta_object_name": "COSMOS 2251 DEB",
        "meta_object_id": "1993-036BNN",
        "meta_epoch": "2025-12-17T06:38:38.162976",
        "meta_mean_motion": 14.12190824,
        "meta_eccentricity": 0.0157786,
        "meta_inclination": 74.0692,
        "meta_ra_of_asc_node": 183.8069,
        "meta_arg_of_pericenter": 239.4795,
        "meta_mean_anomaly": 119.0691,
        "meta_ephemeris_type": 0,
        "meta_classification_type": "U",
        "meta_norad_cat_id": 37533,
        "meta_element_set_no": 999,
        "meta_rev_at_epoch": 62985,
        "meta_bstar": 0.0010470743,
        "meta_mean_motion_dot": 2.138e-05,
        "meta_mean_motion_ddot": 0,
        "tle_line1": "1 37533U 93036BNN 25351.27683059  .00002138  00000+0  10471-2 0  9996",
        "tle_line2": "2 37533  74.0692 183.8069 0157786 239.4795 119.0691 14.12190824629858"
      },
      "geometry": {
        "type": "Point",
        "coordinates": [
          31.03123762525409,
          -66.00689512736523
        ]
      }
    }
  ]
}